{
    "links": {
        "self": "http://www.neowsapp.com/rest/v1/neo/3311263?api_key=iIulBulltgU6a56xZRHN4H3l9WmuAYTsLGpBGhQ2"
    },
    "id": "3311263",
    "neo_reference_id": "3311263",
    "name": "(2006 AX)",
    "designation": "2006 AX",
    "nasa_jpl_url": "http://ssd.jpl.nasa.gov/sbdb.cgi?sstr=3311263",
    "absolute_magnitude_h": 23.9,
    "estimated_diameter": {
        "kilometers": {
            "estimated_diameter_min": 0.04411182,
            "estimated_diameter_max": 0.0986370281
        },
        "meters": {
            "estimated_diameter_min": 44.1118199997,
            "estimated_diameter_max": 98.6370281305
        },
        "miles": {
            "estimated_diameter_min": 0.0274098057,
            "estimated_diameter_max": 0.0612901888
        },
        "feet": {
            "estimated_diameter_min": 144.7238235278,
            "estimated_diameter_max": 323.6123073718
        }
    },
    "is_potentially_hazardous_asteroid": false,
    "close_approach_data": [
        {
            "close_approach_date": "2006-01-16",
            "close_approach_date_full": "2006-Jan-16 20:25",
            "epoch_date_close_approach": 1137443100000,
            "relative_velocity": {
                "kilometers_per_second": "6.2597285063",
                "kilometers_per_hour": "22535.022622723",
                "miles_per_hour": "14002.3866957692"
            },
            "miss_distance": {
                "astronomical": "0.1627389266",
                "lunar": "63.3054424474",
                "kilometers": "24345396.785446342",
                "miles": "15127528.0896778396"
            },
            "orbiting_body": "Earth"
        }
    ],
    "orbital_data": {
        "orbit_id": "9",
        "orbit_determination_date": "2017-04-06 09:09:31",
        "first_observation_date": "2006-01-02",
        "last_observation_date": "2006-01-27",
        "data_arc_in_days": 25,
        "observations_used": 17,
        "orbit_uncertainty": "7",
        "minimum_orbit_intersection": ".162332",
        "jupiter_tisserand_invariant": "5.000",
        "epoch_osculation": "2459000.5",
        "eccentricity": ".1416224433825678",
        "semi_major_axis": "1.289605559048054",
        "inclination": "11.67154506143159",
        "ascending_node_longitude": "280.5132159626464",
        "orbital_period": "534.9137624368266",
        "perihelion_distance": "1.106968468775926",
        "perihelion_argument": "232.8297169363717",
        "aphelion_distance": "1.472242649320181",
        "perihelion_time": "2459143.903980619718",
        "mean_anomaly": "263.4883066236392",
        "mean_motion": ".6730056791958425",
        "equinox": "J2000",
        "orbit_class": {
            "orbit_class_type": "AMO",
            "orbit_class_description": "Near-Earth asteroid orbits similar to that of 1221 Amor",
            "orbit_class_range": "1.017 AU < q (perihelion) < 1.3 AU"
        }
    },
    "is_sentry_object": false
}